STARLINK-30816          
1 58162U 23166N   24084.32059323  .00020774  00000+0  10006-2 0  9993
2 58162  53.0904 299.7236 0000570 140.6111 219.4925 15.18728579 23706
STARLINK-30763          
1 58163U 23166P   24084.31063382  .00109061  00000+0  46429-2 0  9998
2 58163  53.0584 296.7128 0000630 200.9719 159.1251 15.22127515 23732
STARLINK-30815          
1 58164U 23166Q   24084.32020223 -.00000635  00000+0 -15078-4 0  9994
2 58164  53.0965 299.7350 0001040 104.3002 255.8108 15.18726435 23707
STARLINK-30814          
1 58165U 23166R   24084.30537933  .00007013  00000+0  34845-3 0  9991
2 58165  53.0981 299.6384 0001122  86.3505 273.7618 15.18726321 23697
STARLINK-30789          
1 58166U 23166S   24084.57838455 -.00005783  00000+0 -26050-3 0  9997
2 58166  53.0950 298.5010 0001684  80.1091 280.0094 15.18688944 23735
STARLINK-30811          
1 58167U 23166T   24084.57330052  .00004044  00000+0  20751-3 0  9997
2 58167  53.0947 298.4631 0000799 103.1795 256.9289 15.18714344 23577
STARLINK-30812          
1 58168U 23166U   24083.91560206  .00020157  00000+0  97145-3 0  9995
2 58168  53.0956 301.4820 0001039  98.3110 261.8003 15.18728221 23485
STARLINK-30771          
1 58169U 23166V   24084.30501078  .00042815  00000+0  20388-2 0  9991
2 58169  53.0954 299.6430 0000927  48.2888 311.8186 15.18749689 23692
STARLINK-30764          
1 58170U 23166W   24084.56354981  .00045362  00000+0  21576-2 0  9990
2 58170  53.0975 298.4113 0003132  72.7746 287.3592 15.18761025 23739
STARLINK-30752          
1 58171U 23166X   24084.29524346  .00001241  00000+0  74177-4 0  9990
2 58171  53.0984 299.5831 0001389  99.8405 260.2747 15.18714443 23704
STARLINK-30753          
1 58175U 23167A   24084.02192640 -.00002183  00000+0 -14655-3 0  9996
2 58175  43.0024  74.3868 0000266 260.7405  99.3407 15.02545979 23256
STARLINK-30824          
1 58176U 23167B   24084.35320455  .00012778  00000+0  95866-3 0  9992
2 58176  43.0027  72.5721 0001205 249.2936 110.7777 15.02561150 23306
STARLINK-30791          
1 58177U 23167C   24084.23689952  .00015551  00000+0  11632-2 0  9990
2 58177  43.0025  73.4014 0001129 240.9512 119.1218 15.02553243 23287
STARLINK-30810          
1 58178U 23167D   24084.08075871  .00015469  00000+0  11578-2 0  9990
2 58178  43.0023  74.8156 0001086 261.1497  98.9223 15.02531288 23259
STARLINK-30819          
1 58179U 23167E   24084.27683272 -.00016396  00000+0 -12007-2 0  9992
2 58179  43.0013  73.7041 0001199 258.4193 101.6515 15.02560978 23330
STARLINK-30806          
1 58180U 23167F   24084.27353468  .00013318  00000+0  99934-3 0  9999
2 58180  43.0013  73.6781 0002915 286.5092  73.5430 15.02523670 23284
STARLINK-30821          
1 58181U 23167G   24084.23356786  .00019108  00000+0  14247-2 0  9998
2 58181  43.0009  73.3765 0000845 265.1576  94.9170 15.02563463 23281
STARLINK-30778          
1 58182U 23167H   24084.23023802  .00016643  00000+0  12435-2 0  9997
2 58182  43.0007  73.3519 0001142 245.8540 114.2183 15.02557168 23289
STARLINK-30809          
1 58183U 23167J   24084.33667805 -.00005268  00000+0 -37541-3 0  9995
2 58183  43.0015  73.2922 0001076 251.1304 108.9422 15.02516750 23299
STARLINK-30801          
1 58184U 23167K   24084.20039522  .00010335  00000+0  77927-3 0  9992
2 58184  43.0027  73.9897 0001225 251.4645 108.6065 15.02522189 23279
STARLINK-30793          
1 58185U 23167L   24083.16329005 -.00029793  00000+0 -22072-2 0  9995
2 58185  43.0008  79.1077 0000854 300.4777  59.5981 15.02409772 23177
STARLINK-30755          
1 58186U 23167M   24083.39932162  .00008830  00000+0  66824-3 0  9996
2 58186  43.0028  78.2986 0001300 263.3345  96.7349 15.02517156 23205
STARLINK-30760          
1 58187U 23167N   24084.35653549  .00007469  00000+0  56730-3 0  9995
2 58187  43.0000  72.5782 0000806 257.1751 102.9001 15.02541616 23358
STARLINK-30826          
1 58188U 23167P   24084.25687873  .00006025  00000+0  46056-3 0  9999
2 58188  43.0022  73.5517 0000880 272.8911  87.1831 15.02548350 23283
STARLINK-30796          
1 58189U 23167Q   24084.26020876  .00012387  00000+0  93031-3 0  9998
2 58189  43.0047  73.5747 0001114 259.2170 100.8547 15.02541054 23284
STARLINK-30820          
1 58190U 23167R   24084.58334491  .00019459  00000+0  14836-2 0  9998
2 58190  43.0020  71.7694 0001465 260.2393  70.8805 15.01707681 23378
STARLINK-30785          
1 58191U 23167S   24084.25021578  .00005558  00000+0  42601-3 0  9999
2 58191  42.9997  73.5023 0000990 271.4758  88.5971 15.02549322 23284
STARLINK-30807          
1 58192U 23167T   24084.25355211  .00030676  00000+0  22722-2 0  9994
2 58192  43.0025  73.5298 0001222 265.3595  94.7108 15.02599563 23332
STARLINK-30822          
1 58193U 23167U   24084.24688810  .00019362  00000+0  14432-2 0  9996
2 58193  43.0023  73.4781 0001012 259.3140 100.7588 15.02567290 23335
STARLINK-30830          
1 58194U 23167V   24084.37671710 -.00096560  00000+0 -73043-2 0  9992
2 58194  43.0026  72.7252 0000055 116.6782 243.4066 15.02161572 23358
STARLINK-30827          
1 58195U 23167W   24084.37318664  .00009201  00000+0  69522-3 0  9991
2 58195  43.0024  72.7044 0000993 255.1927 104.8806 15.02540109 23244
STARLINK-30798          
1 58196U 23167X   24084.00862723  .00003361  00000+0  26942-3 0  9992
2 58196  43.0042  75.1310 0001712 260.4361  99.6288 15.01717899 23245
STARLINK-30762          
1 58197U 23167Y   24084.37628009  .00042492  00000+0  32046-2 0  9999
2 58197  43.0017  72.7252 0001379 240.2805 119.7900 15.01784607 23307
STARLINK-30800          
1 58206U 23170A   24084.50143663  .00026887  00000+0  19975-2 0  9993
2 58206  43.0018 122.3014 0000826 250.6424 109.4329 15.02541433 22719
STARLINK-30845          
1 58207U 23170B   24084.39832331  .00034792  00000+0  25742-2 0  9991
2 58207  43.0008 122.4120 0001007 298.2846  61.7895 15.02589175 22719
STARLINK-30841          
1 58208U 23170C   24084.51142065  .00015819  00000+0  11832-2 0  9998
2 58208  43.0013 122.3581 0001144 259.8187 100.2527 15.02544573 22599
STARLINK-30839          
1 58209U 23170D   24083.82666075  .00000650  00000+0  63154-4 0  9997
2 58209  43.0025 125.8344 0001109 252.3453 107.7268 15.02534386 22598
STARLINK-30846          
1 58210U 23170E   24084.29534448  .00012674  00000+0  95086-3 0  9996
2 58210  43.0012 123.3346 0001598 282.2372  77.8291 15.02564597 22562
STARLINK-30838          
1 58211U 23170F   24084.41830407  .00005200  00000+0  39979-3 0  9991
2 58211  43.0020 122.5354 0001447 275.3703  84.6974 15.02531605 22700
STARLINK-30837          
1 58212U 23170G   24084.16571128  .00003878  00000+0  30189-3 0  9999
2 58212  43.0020 124.0588 0001224 245.0914 114.9801 15.02550501 22676
STARLINK-30813          
1 58213U 23170H   24084.48145496  .00002109  00000+0  17116-3 0  9991
2 58213  43.0030 122.1486 0001167 246.7838 113.2881 15.02535595 22590
STARLINK-30805          
1 58214U 23170J   24084.41164730  .00011270  00000+0  84815-3 0  9996
2 58214  42.9988 122.4845 0001055 270.3436  89.7285 15.02529994 22698
STARLINK-30851          
1 58215U 23170K   24084.47478577  .00035575  00000+0  26311-2 0  9990
2 58215  43.0001 122.1005 0001048 284.3434  75.7292 15.02594873 22597
STARLINK-30786          
1 58216U 23170L   24084.25002315 -.01381442  00000+0 -39889-1 0  9993
2 58216  42.9997  87.2724 0001109 262.3417 339.0578 15.37863842 23096
STARLINK-30818          
1 58217U 23170M   24084.40165659  .00008186  00000+0  62037-3 0  9993
2 58217  43.0015 122.4110 0001215 280.8101  79.2605 15.02535548 22706
STARLINK-30794          
1 58218U 23170N   24084.42163484  .00027106  00000+0  20133-2 0  9993
2 58218  43.0018 122.5422 0001094 248.8871 111.1854 15.02547186 22703
STARLINK-30835          
1 58219U 23170P   24084.46146530  .00042390  00000+0  31288-2 0  9996
2 58219  43.0008 122.0016 0000990 291.7216  68.3521 15.02600762 22592
STARLINK-30792          
1 58220U 23170Q   24084.45813485  .00033265  00000+0  24622-2 0  9992
2 58220  43.0007 121.9743 0001020 301.1107  58.9635 15.02592756 22716
STARLINK-30836          
1 58221U 23170R   24084.45480625  .00023782  00000+0  17676-2 0  9993
2 58221  43.0008 121.9510 0001053 249.8230 110.2499 15.02579539 22591
STARLINK-30855          
1 58222U 23170S   24083.84330491  .00003646  00000+0  28478-3 0  9991
2 58222  43.0033 125.9406 0001291 243.5613 116.5097 15.02542465 22599
STARLINK-30840          
1 58223U 23170T   24084.10589097  .00029675  00000+0  22012-2 0  9997
2 58223  43.0007 124.4729 0000674 225.9489 134.1298 15.02558468 22546
STARLINK-30875          
1 58224U 23170U   24084.47146206  .00024637  00000+0  18318-2 0  9996
2 58224  43.0013 122.0607 0001468 270.0083  90.0591 15.02549054 22655
STARLINK-30872          
1 58225U 23170V   24084.43880585  .00017485  00000+0  99222-3 0  9995
2 58225  43.0001 110.7923 0001258 261.7607  98.3097 15.12673675 21653
STARLINK-30865          
1 58226U 23170W   24084.41904619  .00025089  00000+0  18244-2 0  9992
2 58226  43.0008 111.4954 0000634 240.9332 119.1447 15.03380933 22715
STARLINK-30874          
1 58227U 23170X   24084.18568504  .00001740  00000+0  14387-3 0  9999
2 58227  43.0027 124.2119 0001413 274.3891  85.6790 15.02536871 22552
STARLINK-30871          
1 58228U 23170Y   24084.11588552  .00017413  00000+0  13014-2 0  9997
2 58228  42.9981 124.5438 0001262 261.8899  98.1800 15.02520217 21454
STARLINK-30861          
1 58230U 23171A   24084.51277355  .00041623  00000+0  30760-2 0  9998
2 58230  43.0017 212.1227 0001463 273.1123  86.9552 15.02560644 22164
STARLINK-30867          
1 58231U 23171B   24084.51608358 -.00042085  00000+0 -31216-2 0  9992
2 58231  43.0017 212.1452 0003513 293.5919  66.4554 15.02499842 22168
STARLINK-30880          
1 58232U 23171C   24084.45294989  .00009310  00000+0  70342-3 0  9993
2 58232  43.0011 212.5316 0002007 285.5541  74.5080 15.02530562 22096
